[{"ORDINAL":"1","COMMENT":"GENERATED VIA SPACETRACK.ORG API","ORIGINATOR":"JSPOC","NORAD_CAT_ID":"3673","OBJECT_NAME":"OPS 2644","OBJECT_TYPE":"PAYLOAD","CLASSIFICATION_TYPE":"U","INTLDES":"69010B","EPOCH":"2016-06-22 21:08:35","EPOCH_MICROSECONDS":"484864","MEAN_MOTION":"12.63312259","ECCENTRICITY":"0.0023599","INCLINATION":"80.3944","RA_OF_ASC_NODE":"302.4666","ARG_OF_PERICENTER":"302.2505","MEAN_ANOMALY":"178.8665","EPHEMERIS_TYPE":"0","ELEMENT_SET_NO":"999","REV_AT_EPOCH":"18298","BSTAR":"8.0294e-05","MEAN_MOTION_DOT":"2.1e-07","MEAN_MOTION_DDOT":"0","FILE":"2050785","TLE_LINE0":"0 OPS 2644","TLE_LINE1":"1  3673U 69010B   16174.88096626 +.00000021 +00000-0 +80294-4 0  9999","TLE_LINE2":"2  3673 080.3944 302.4666 0023599 302.2505 178.8665 12.63312259182984","OBJECT_ID":"1969-010B","OBJECT_NUMBER":"3673","SEMIMAJOR_AXIS":"7787.439","PERIOD":"113.986","APOGEE":"1427.682","PERIGEE":"1390.927"},{"ORDINAL":"1","COMMENT":"GENERATED VIA SPACETRACK.ORG API","ORIGINATOR":"JSPOC","NORAD_CAT_ID":"3674","OBJECT_NAME":"INTELSAT 3-F3","OBJECT_TYPE":"PAYLOAD","CLASSIFICATION_TYPE":"U","INTLDES":"69011A","EPOCH":"2016-06-21 06:23:05","EPOCH_MICROSECONDS":"731584","MEAN_MOTION":"0.84931258","ECCENTRICITY":"0.0171918","INCLINATION":"17.7275","RA_OF_ASC_NODE":"330.9448","ARG_OF_PERICENTER":"282.9859","MEAN_ANOMALY":"282.5784","EPHEMERIS_TYPE":"0","ELEMENT_SET_NO":"999","REV_AT_EPOCH":"3571","BSTAR":"0","MEAN_MOTION_DOT":"-1.98e-06","MEAN_MOTION_DDOT":"0","FILE":"2050282","TLE_LINE0":"0 INTELSAT 3-F3","TLE_LINE1":"1  3674U 69011A   16173.26603856 -.00000198 +00000-0 +00000-0 0  9990","TLE_LINE2":"2  3674 017.7275 330.9448 0171918 282.9859 282.5784 00.84931258035714","OBJECT_ID":"1969-011A","OBJECT_NUMBER":"3674","SEMIMAJOR_AXIS":"47100.277","PERIOD":"1695.488","APOGEE":"41531.881","PERIGEE":"39912.404"},{"ORDINAL":"1","COMMENT":"GENERATED VIA SPACETRACK.ORG API","ORIGINATOR":"JSPOC","NORAD_CAT_ID":"3691","OBJECT_NAME":"OPS 0757 (TACSAT)","OBJECT_TYPE":"PAYLOAD","CLASSIFICATION_TYPE":"U","INTLDES":"69013A","EPOCH":"2016-06-23 08:17:23","EPOCH_MICROSECONDS":"57664","MEAN_MOTION":"1.00396727","ECCENTRICITY":"0.0020332","INCLINATION":"5.6586","RA_OF_ASC_NODE":"304.8314","ARG_OF_PERICENTER":"234.4531","MEAN_ANOMALY":"22.603","EPHEMERIS_TYPE":"0","ELEMENT_SET_NO":"999","REV_AT_EPOCH":"16084","BSTAR":"0","MEAN_MOTION_DOT":"-3.7e-07","MEAN_MOTION_DDOT":"0","FILE":"2050689","TLE_LINE0":"0 OPS 0757 (TACSAT)","TLE_LINE1":"1 03691U 69013A   16175.34540576 -.00000037  00000-0  00000+0 0  9992","TLE_LINE2":"2 03691   5.6586 304.8314 0020332 234.4531  22.6030  1.00396727160843","OBJECT_ID":"1969-013A","OBJECT_NUMBER":"3691","SEMIMAJOR_AXIS":"42129.742","PERIOD":"1434.309","APOGEE":"35837.265","PERIGEE":"35665.949"},{"ORDINAL":"1","COMMENT":"GENERATED VIA SPACETRACK.ORG API","ORIGINATOR":"JSPOC","NORAD_CAT_ID":"3764","OBJECT_NAME":"ESSA 9 (TOS-G)","OBJECT_TYPE":"PAYLOAD","CLASSIFICATION_TYPE":"U","INTLDES":"69016A","EPOCH":"2016-06-22 21:22:50","EPOCH_MICROSECONDS":"405952","MEAN_MOTION":"12.49833886","ECCENTRICITY":"0.005061","INCLINATION":"101.8463","RA_OF_ASC_NODE":"233.9084","ARG_OF_PERICENTER":"308.0294","MEAN_ANOMALY":"103.7661","EPHEMERIS_TYPE":"0","ELEMENT_SET_NO":"999","REV_AT_EPOCH":"53229","BSTAR":"7.6785e-05","MEAN_MOTION_DOT":"-3.4e-07","MEAN_MOTION_DDOT":"0","FILE":"2050785","TLE_LINE0":"0 ESSA 9 (TOS-G)","TLE_LINE1":"1  3764U 69016A   16174.89086118 -.00000034 +00000-0 +76785-4 0  9997","TLE_LINE2":"2  3764 101.8463 233.9084 0050610 308.0294 103.7661 12.49833886532299","OBJECT_ID":"1969-016A","OBJECT_NUMBER":"3764","SEMIMAJOR_AXIS":"7843.326","PERIOD":"115.215","APOGEE":"1504.886","PERIGEE":"1425.496"},{"ORDINAL":"1","COMMENT":"GENERATED VIA SPACETRACK.ORG API","ORIGINATOR":"JSPOC","NORAD_CAT_ID":"3818","OBJECT_NAME":"COSMOS 272","OBJECT_TYPE":"PAYLOAD","CLASSIFICATION_TYPE":"U","INTLDES":"69024A","EPOCH":"2016-06-23 01:37:22","EPOCH_MICROSECONDS":"675584","MEAN_MOTION":"13.17867538","ECCENTRICITY":"0.001887","INCLINATION":"73.9913","RA_OF_ASC_NODE":"350.7429","ARG_OF_PERICENTER":"157.0533","MEAN_ANOMALY":"342.0055","EPHEMERIS_TYPE":"0","ELEMENT_SET_NO":"999","REV_AT_EPOCH":"27396","BSTAR":"-3.1283e-05","MEAN_MOTION_DOT":"-3.2e-07","MEAN_MOTION_DDOT":"0","FILE":"2050591","TLE_LINE0":"0 COSMOS 272","TLE_LINE1":"1 03818U 69024A   16175.06762356 -.00000032  00000-0 -31283-4 0  9994","TLE_LINE2":"2 03818  73.9913 350.7429 0018870 157.0533 342.0055 13.17867538273967","OBJECT_ID":"1969-024A","OBJECT_NUMBER":"3818","SEMIMAJOR_AXIS":"7571.013","PERIOD":"109.267","APOGEE":"1207.164","PERIGEE":"1178.591"},{"ORDINAL":"1","COMMENT":"GENERATED VIA SPACETRACK.ORG API","ORIGINATOR":"JSPOC","NORAD_CAT_ID":"3825","OBJECT_NAME":"OV1-19","OBJECT_TYPE":"PAYLOAD","CLASSIFICATION_TYPE":"U","INTLDES":"69025C","EPOCH":"2016-06-22 12:35:14","EPOCH_MICROSECONDS":"943264","MEAN_MOTION":"9.55691279","ECCENTRICITY":"0.268838","INCLINATION":"104.7134","RA_OF_ASC_NODE":"19.9034","ARG_OF_PERICENTER":"156.5998","MEAN_ANOMALY":"218.4706","EPHEMERIS_TYPE":"0","ELEMENT_SET_NO":"999","REV_AT_EPOCH":"63657","BSTAR":"5.1604e-05","MEAN_MOTION_DOT":"6.9e-07","MEAN_MOTION_DDOT":"0","FILE":"2050785","TLE_LINE0":"0 OV1-19","TLE_LINE1":"1  3825U 69025C   16174.52447851 +.00000069 +00000-0 +51604-4 0  9990","TLE_LINE2":"2  3825 104.7134 019.9034 2688380 156.5998 218.4706 09.55691279636572","OBJECT_ID":"1969-025C","OBJECT_NUMBER":"3825","SEMIMAJOR_AXIS":"9379.724","PERIOD":"150.676","APOGEE":"5523.216","PERIGEE":"479.963"},{"ORDINAL":"1","COMMENT":"GENERATED VIA SPACETRACK.ORG API","ORIGINATOR":"JSPOC","NORAD_CAT_ID":"3890","OBJECT_NAME":"NIMBUS 3","OBJECT_TYPE":"PAYLOAD","CLASSIFICATION_TYPE":"U","INTLDES":"69037A","EPOCH":"2016-06-22 18:23:03","EPOCH_MICROSECONDS":"302016","MEAN_MOTION":"13.42503119","ECCENTRICITY":"0.0039092","INCLINATION":"99.96","RA_OF_ASC_NODE":"84.696","ARG_OF_PERICENTER":"202.4067","MEAN_ANOMALY":"220.4261","EPHEMERIS_TYPE":"0","ELEMENT_SET_NO":"999","REV_AT_EPOCH":"31193","BSTAR":"5.0994e-05","MEAN_MOTION_DOT":"-1.6e-07","MEAN_MOTION_DDOT":"0","FILE":"2050375","TLE_LINE0":"0 NIMBUS 3","TLE_LINE1":"1 03890U 69037A   16174.76601044 -.00000016  00000-0  50994-4 0  9991","TLE_LINE2":"2 03890  99.9600  84.6960 0039092 202.4067 220.4261 13.42503119311935","OBJECT_ID":"1969-037A","OBJECT_NUMBER":"3890","SEMIMAJOR_AXIS":"7478.106","PERIOD":"107.262","APOGEE":"1129.204","PERIGEE":"1070.737"},{"ORDINAL":"1","COMMENT":"GENERATED VIA SPACETRACK.ORG API","ORIGINATOR":"JSPOC","NORAD_CAT_ID":"3891","OBJECT_NAME":"SECOR 13 (EGRS 13)","OBJECT_TYPE":"PAYLOAD","CLASSIFICATION_TYPE":"U","INTLDES":"69037B","EPOCH":"2016-06-23 07:48:38","EPOCH_MICROSECONDS":"337408","MEAN_MOTION":"13.42834071","ECCENTRICITY":"0.0039922","INCLINATION":"99.9521","RA_OF_ASC_NODE":"84.0714","ARG_OF_PERICENTER":"144.3762","MEAN_ANOMALY":"331.4626","EPHEMERIS_TYPE":"0","ELEMENT_SET_NO":"999","REV_AT_EPOCH":"31286","BSTAR":"3.0851e-05","MEAN_MOTION_DOT":"-2.7e-07","MEAN_MOTION_DDOT":"0","FILE":"2050652","TLE_LINE0":"0 SECOR 13 (EGRS 13)","TLE_LINE1":"1 03891U 69037B   16175.32544372 -.00000027  00000-0  30851-4 0  9997","TLE_LINE2":"2 03891  99.9521  84.0714 0039922 144.3762 331.4626 13.42834071312862","OBJECT_ID":"1969-037B","OBJECT_NUMBER":"3891","SEMIMAJOR_AXIS":"7476.877","PERIOD":"107.235","APOGEE":"1128.591","PERIGEE":"1068.893"},{"ORDINAL":"1","COMMENT":"GENERATED VIA SPACETRACK.ORG API","ORIGINATOR":"JSPOC","NORAD_CAT_ID":"3947","OBJECT_NAME":"INTELSAT 3-F4","OBJECT_TYPE":"PAYLOAD","CLASSIFICATION_TYPE":"U","INTLDES":"69045A","EPOCH":"2016-06-22 11:13:03","EPOCH_MICROSECONDS":"456768","MEAN_MOTION":"0.90044732","ECCENTRICITY":"0.0023838","INCLINATION":"12.6621","RA_OF_ASC_NODE":"317.8109","ARG_OF_PERICENTER":"350.7997","MEAN_ANOMALY":"288.257","EPHEMERIS_TYPE":"0","ELEMENT_SET_NO":"999","REV_AT_EPOCH":"3312","BSTAR":"0","MEAN_MOTION_DOT":"-1.3e-06","MEAN_MOTION_DDOT":"0","FILE":"2050785","TLE_LINE0":"0 INTELSAT 3-F4","TLE_LINE1":"1  3947U 69045A   16174.46740112 -.00000130 +00000-0 +00000-0 0  9996","TLE_LINE2":"2  3947 012.6621 317.8109 0023838 350.7997 288.2570 00.90044732033126","OBJECT_ID":"1969-045A","OBJECT_NUMBER":"3947","SEMIMAJOR_AXIS":"45299.801","PERIOD":"1599.205","APOGEE":"39029.652","PERIGEE":"38813.681"},{"ORDINAL":"1","COMMENT":"GENERATED VIA SPACETRACK.ORG API","ORIGINATOR":"JSPOC","NORAD_CAT_ID":"3954","OBJECT_NAME":"OPS 6909 (VELA 9)","OBJECT_TYPE":"PAYLOAD","CLASSIFICATION_TYPE":"U","INTLDES":"69046D","EPOCH":"2016-06-25 03:40:14","EPOCH_MICROSECONDS":"460960","MEAN_MOTION":"0.21512999","ECCENTRICITY":"0.6030031","INCLINATION":"52.9923","RA_OF_ASC_NODE":"248.6221","ARG_OF_PERICENTER":"82.6991","MEAN_ANOMALY":"0.5323","EPHEMERIS_TYPE":"0","ELEMENT_SET_NO":"999","REV_AT_EPOCH":"517","BSTAR":"0","MEAN_MOTION_DOT":"8.17e-06","MEAN_MOTION_DDOT":"0","FILE":"2050785","TLE_LINE0":"0 OPS 6909 (VELA 9)","TLE_LINE1":"1  3954U 69046D   16177.15294515 +.00000817 +00000-0 +00000-0 0  9996","TLE_LINE2":"2  3954 052.9923 248.6221 6030031 082.6991 000.5323 00.21512999005170","OBJECT_ID":"1969-046D","OBJECT_NUMBER":"3954","SEMIMAJOR_AXIS":"117652.511","PERIOD":"6693.627","APOGEE":"182219.206","PERIGEE":"40329.547"}]